{
    "links": {
        "self": "http://www.neowsapp.com/rest/v1/neo/54054319?api_key=iIulBulltgU6a56xZRHN4H3l9WmuAYTsLGpBGhQ2"
    },
    "id": "54054319",
    "neo_reference_id": "54054319",
    "name": "(2020 RN6)",
    "designation": "2020 RN6",
    "nasa_jpl_url": "http://ssd.jpl.nasa.gov/sbdb.cgi?sstr=54054319",
    "absolute_magnitude_h": 25.114,
    "estimated_diameter": {
        "kilometers": {
            "estimated_diameter_min": 0.0252205746,
            "estimated_diameter_max": 0.0563949192
        },
        "meters": {
            "estimated_diameter_min": 25.2205745844,
            "estimated_diameter_max": 56.3949192024
        },
        "miles": {
            "estimated_diameter_min": 0.0156713337,
            "estimated_diameter_max": 0.0350421673
        },
        "feet": {
            "estimated_diameter_min": 82.7446699196,
            "estimated_diameter_max": 185.0227067159
        }
    },
    "is_potentially_hazardous_asteroid": false,
    "close_approach_data": [
        {
            "close_approach_date": "1904-05-08",
            "close_approach_date_full": "1904-May-08 07:58",
            "epoch_date_close_approach": -2071756920000,
            "relative_velocity": {
                "kilometers_per_second": "15.4552202839",
                "kilometers_per_hour": "55638.793021968",
                "miles_per_hour": "34571.7822530112"
            },
            "miss_distance": {
                "astronomical": "0.1496118445",
                "lunar": "58.1990075105",
                "kilometers": "22381613.263971215",
                "miles": "13907289.592644167"
            },
            "orbiting_body": "Earth"
        },
        {
            "close_approach_date": "2020-09-09",
            "close_approach_date_full": "2020-Sep-09 16:42",
            "epoch_date_close_approach": 1599669720000,
            "relative_velocity": {
                "kilometers_per_second": "11.2636233284",
                "kilometers_per_hour": "40549.0439823397",
                "miles_per_hour": "25195.5990233599"
            },
            "miss_distance": {
                "astronomical": "0.0222485739",
                "lunar": "8.6546952471",
                "kilometers": "3328339.265977593",
                "miles": "2068134.1192250634"
            },
            "orbiting_body": "Earth"
        },
        {
            "close_approach_date": "2020-11-10",
            "close_approach_date_full": "2020-Nov-10 12:12",
            "epoch_date_close_approach": 1605010320000,
            "relative_velocity": {
                "kilometers_per_second": "11.0587451223",
                "kilometers_per_hour": "39811.4824401122",
                "miles_per_hour": "24737.3069639686"
            },
            "miss_distance": {
                "astronomical": "0.0606218543",
                "lunar": "23.5819013227",
                "kilometers": "9068900.278730341",
                "miles": "5635153.3276710658"
            },
            "orbiting_body": "Mars"
        }
    ],
    "orbital_data": {
        "orbit_id": "4",
        "orbit_determination_date": "2020-09-24 08:25:33",
        "first_observation_date": "2020-09-13",
        "last_observation_date": "2020-09-23",
        "data_arc_in_days": 10,
        "observations_used": 39,
        "orbit_uncertainty": "8",
        "minimum_orbit_intersection": ".0222396",
        "jupiter_tisserand_invariant": "4.084",
        "epoch_osculation": "2459109.5",
        "eccentricity": ".4771994741999049",
        "semi_major_axis": "1.686700102788289",
        "inclination": "3.195443699556035",
        "ascending_node_longitude": "10.05612529997501",
        "orbital_period": "800.1201983937978",
        "perihelion_distance": ".8818077006047922",
        "perihelion_argument": "284.2822737042426",
        "aphelion_distance": "2.491592504971786",
        "perihelion_time": "2459062.108644743260",
        "mean_anomaly": "21.32290614169633",
        "mean_motion": ".4499323985604693",
        "equinox": "J2000",
        "orbit_class": {
            "orbit_class_type": "APO",
            "orbit_class_description": "Near-Earth asteroid orbits which cross the Earth’s orbit similar to that of 1862 Apollo",
            "orbit_class_range": "a (semi-major axis) > 1.0 AU; q (perihelion) < 1.017 AU"
        }
    },
    "is_sentry_object": false
}